{
  "type": "FeatureCollection",
  "features": [
    {
      "type": "Feature",
      "properties": {
        "norad_id": 34340,
        "name": "COSMOS 2251 DEB",
        "group": "cosmos-2251-debris",
        "lat": 11.685472103341919,
        "lon": -43.88382983249018,
        "alt_km": 826.9478235959532,
        "timestamp": "2025-12-09T21:34:11.803547+00:00",
        "meta_object_name": "COSMOS 2251 DEB",
        "meta_object_id": "1993-036PN",
        "meta_epoch": "2025-12-09T08:09:37.703808",
        "meta_mean_motion": 13.7955177,
        "meta_eccentricity": 0.0282264,
        "meta_inclination": 74.0796,
        "meta_ra_of_asc_node": 313.6647,
        "meta_arg_of_pericenter": 62.2755,
        "meta_mean_anomaly": 58.5983,
        "meta_ephemeris_type": 0,
        "meta_classification_type": "U",
        "meta_norad_cat_id": 34340,
        "meta_element_set_no": 999,
        "meta_rev_at_epoch": 84221,
        "meta_bstar": 0.0018418,
        "meta_mean_motion_dot": 2.539e-05,
        "meta_mean_motion_ddot": 0,
        "tle_line1": "1 34340U 93036PN  25343.34001972  .00002539  00000+0  18418-2 0  9990",
        "tle_line2": "2 34340  74.0796 313.6647 0282264  62.2755  58.5983 13.79551770842210"
      },
      "geometry": {
        "type": "Point",
        "coordinates": [
          -43.88382983249018,
          11.685472103341919
        ]
      }
    },
    {
      "type": "Feature",
      "properties": {
        "norad_id": 34343,
        "name": "COSMOS 2251 DEB",
        "group": "cosmos-2251-debris",
        "lat": -64.21695354587075,
        "lon": -48.551457249657794,
        "alt_km": 678.3989150117413,
        "timestamp": "2025-12-09T21:34:11.803557+00:00",
        "meta_object_name": "COSMOS 2251 DEB",
        "meta_object_id": "1993-036PR",
        "meta_epoch": "2025-12-09T13:57:59.973696",
        "meta_mean_motion": 14.69349392,
        "meta_eccentricity": 0.00230988,
        "meta_inclination": 74.0201,
        "meta_ra_of_asc_node": 95.6767,
        "meta_arg_of_pericenter": 11.4532,
        "meta_mean_anomaly": 3.1376,
        "meta_ephemeris_type": 0,
        "meta_classification_type": "U",
        "meta_norad_cat_id": 34343,
        "meta_element_set_no": 999,
        "meta_rev_at_epoch": 88684,
        "meta_bstar": 0.0022500774,
        "meta_mean_motion_dot": 0.00013346,
        "meta_mean_motion_ddot": 0,
        "tle_line1": "1 34343U 93036PR  25343.58194414  .00013346  00000+0  22501-2 0  9999",
        "tle_line2": "2 34343  74.0201  95.6767 0023098  11.4532   3.1376 14.69349392886845"
      },
      "geometry": {
        "type": "Point",
        "coordinates": [
          -48.551457249657794,
          -64.21695354587075
        ]
      }
    },
    {
      "type": "Feature",
      "properties": {
        "norad_id": 34344,
        "name": "COSMOS 2251 DEB",
        "group": "cosmos-2251-debris",
        "lat": 8.537939905558646,
        "lon": -67.05283043527182,
        "alt_km": 908.9741399957156,
        "timestamp": "2025-12-09T21:34:11.803567+00:00",
        "meta_object_name": "COSMOS 2251 DEB",
        "meta_object_id": "1993-036PS",
        "meta_epoch": "2025-12-09T10:54:20.376864",
        "meta_mean_motion": 14.16371082,
        "meta_eccentricity": 0.01557105,
        "meta_inclination": 73.9799,
        "meta_ra_of_asc_node": 116.212,
        "meta_arg_of_pericenter": 301.0761,
        "meta_mean_anomaly": 126.5201,
        "meta_ephemeris_type": 0,
        "meta_classification_type": "U",
        "meta_norad_cat_id": 34344,
        "meta_element_set_no": 999,
        "meta_rev_at_epoch": 86050,
        "meta_bstar": 0.0024100017,
        "meta_mean_motion_dot": 5.364e-05,
        "meta_mean_motion_ddot": 0,
        "tle_line1": "1 34344U 93036PS  25343.45440251  .00005364  00000+0  24100-2 0  9997",
        "tle_line2": "2 34344  73.9799 116.2120 0155710 301.0761 126.5201 14.16371082860503"
      },
      "geometry": {
        "type": "Point",
        "coordinates": [
          -67.05283043527182,
          8.537939905558646
        ]
      }
    },
    {
      "type": "Feature",
      "properties": {
        "norad_id": 34346,
        "name": "COSMOS 2251 DEB",
        "group": "cosmos-2251-debris",
        "lat": 73.53751391335034,
        "lon": 60.943543953843744,
        "alt_km": 776.1988651747452,
        "timestamp": "2025-12-09T21:34:11.803578+00:00",
        "meta_object_name": "COSMOS 2251 DEB",
        "meta_object_id": "1993-036PU",
        "meta_epoch": "2025-12-09T09:42:38.152800",
        "meta_mean_motion": 13.9967692,
        "meta_eccentricity": 0.02063467,
        "meta_inclination": 73.9954,
        "meta_ra_of_asc_node": 318.0332,
        "meta_arg_of_pericenter": 137.7544,
        "meta_mean_anomaly": 348.7735,
        "meta_ephemeris_type": 0,
        "meta_classification_type": "U",
        "meta_norad_cat_id": 34346,
        "meta_element_set_no": 999,
        "meta_rev_at_epoch": 85363,
        "meta_bstar": 0.0013127855,
        "meta_mean_motion_dot": 2.284e-05,
        "meta_mean_motion_ddot": 0,
        "tle_line1": "1 34346U 93036PU  25343.40460825  .00002284  00000+0  13128-2 0  9999",
        "tle_line2": "2 34346  73.9954 318.0332 0206346 137.7544 348.7735 13.99676920853635"
      },
      "geometry": {
        "type": "Point",
        "coordinates": [
          60.943543953843744,
          73.53751391335034
        ]
      }
    },
    {
      "type": "Feature",
      "properties": {
        "norad_id": 34383,
        "name": "COSMOS 2251 DEB",
        "group": "cosmos-2251-debris",
        "lat": -70.22836599040455,
        "lon": 176.4089961594143,
        "alt_km": 548.7423637972652,
        "timestamp": "2025-12-09T21:34:11.803588+00:00",
        "meta_object_name": "COSMOS 2251 DEB",
        "meta_object_id": "1993-036PY",
        "meta_epoch": "2025-12-09T14:34:45.280128",
        "meta_mean_motion": 15.08535731,
        "meta_eccentricity": 0.00024564,
        "meta_inclination": 74.023,
        "meta_ra_of_asc_node": 304.1601,
        "meta_arg_of_pericenter": 36.8351,
        "meta_mean_anomaly": 80.1685,
        "meta_ephemeris_type": 0,
        "meta_classification_type": "U",
        "meta_norad_cat_id": 34383,
        "meta_element_set_no": 999,
        "meta_rev_at_epoch": 89066,
        "meta_bstar": 0.0044404619,
        "meta_mean_motion_dot": 0.00069993,
        "meta_mean_motion_ddot": 0,
        "tle_line1": "1 34383U 93036PY  25343.60746852  .00069993  00000+0  44405-2 0  9991",
        "tle_line2": "2 34383  74.0230 304.1601 0002456  36.8351  80.1685 15.08535731890662"
      },
      "geometry": {
        "type": "Point",
        "coordinates": [
          176.4089961594143,
          -70.22836599040455
        ]
      }
    },
    {
      "type": "Feature",
      "properties": {
        "norad_id": 34387,
        "name": "COSMOS 2251 DEB",
        "group": "cosmos-2251-debris",
        "lat": 39.52347915643169,
        "lon": 23.518741061557993,
        "alt_km": 770.0767775604136,
        "timestamp": "2025-12-09T21:34:11.803662+00:00",
        "meta_object_name": "COSMOS 2251 DEB",
        "meta_object_id": "1993-036QC",
        "meta_epoch": "2025-12-09T03:21:41.241024",
        "meta_mean_motion": 14.43807825,
        "meta_eccentricity": 0.00387286,
        "meta_inclination": 74.0395,
        "meta_ra_of_asc_node": 218.5855,
        "meta_arg_of_pericenter": 316.1348,
        "meta_mean_anomaly": 200.5275,
        "meta_ephemeris_type": 0,
        "meta_classification_type": "U",
        "meta_norad_cat_id": 34387,
        "meta_element_set_no": 999,
        "meta_rev_at_epoch": 88129,
        "meta_bstar": 0.00043015077,
        "meta_mean_motion_dot": 1.451e-05,
        "meta_mean_motion_ddot": 0,
        "tle_line1": "1 34387U 93036QC  25343.14006066  .00001451  00000+0  43015-3 0  9992",
        "tle_line2": "2 34387  74.0395 218.5855 0038728 316.1348 200.5275 14.43807825881294"
      },
      "geometry": {
        "type": "Point",
        "coordinates": [
          23.518741061557993,
          39.52347915643169
        ]
      }
    },
    {
      "type": "Feature",
      "properties": {
        "norad_id": 34388,
        "name": "COSMOS 2251 DEB",
        "group": "cosmos-2251-debris",
        "lat": 60.20259444397257,
        "lon": -101.58106046388284,
        "alt_km": 730.1182859066339,
        "timestamp": "2025-12-09T21:34:11.803675+00:00",
        "meta_object_name": "COSMOS 2251 DEB",
        "meta_object_id": "1993-036QD",
        "meta_epoch": "2025-12-09T10:29:34.472256",
        "meta_mean_motion": 14.49339397,
        "meta_eccentricity": 0.00141644,
        "meta_inclination": 74.0389,
        "meta_ra_of_asc_node": 229.2986,
        "meta_arg_of_pericenter": 277.6803,
        "meta_mean_anomaly": 259.604,
        "meta_ephemeris_type": 0,
        "meta_classification_type": "U",
        "meta_norad_cat_id": 34388,
        "meta_element_set_no": 999,
        "meta_rev_at_epoch": 88107,
        "meta_bstar": 0.0011136723,
        "meta_mean_motion_dot": 4.234e-05,
        "meta_mean_motion_ddot": 0,
        "tle_line1": "1 34388U 93036QD  25343.43720454  .00004234  00000+0  11137-2 0  9990",
        "tle_line2": "2 34388  74.0389 229.2986 0014164 277.6803 259.6040 14.49339397881078"
      },
      "geometry": {
        "type": "Point",
        "coordinates": [
          -101.58106046388284,
          60.20259444397257
        ]
      }
    }
  ]
}